{
  "type": "FeatureCollection",
  "features": [
    {
      "type": "Feature",
      "properties": {
        "norad_id": 46805,
        "name": "COSMOS 2547 (705K)",
        "group": "glo-ops",
        "lat": -51.67710891978046,
        "lon": 55.21208878291967,
        "alt_km": 19120.703817396537,
        "timestamp": "2025-12-26T13:39:19.236761+00:00",
        "meta_object_name": "COSMOS 2547 (705K)",
        "meta_object_id": "2020-075A",
        "meta_epoch": "2025-12-24T20:21:03.584160",
        "meta_mean_motion": 2.13100193,
        "meta_eccentricity": 0.00061113,
        "meta_inclination": 64.5968,
        "meta_ra_of_asc_node": 198.292,
        "meta_arg_of_pericenter": 227.5617,
        "meta_mean_anomaly": 132.4433,
        "meta_ephemeris_type": 0,
        "meta_classification_type": "U",
        "meta_norad_cat_id": 46805,
        "meta_element_set_no": 999,
        "meta_rev_at_epoch": 4019,
        "meta_bstar": 0,
        "meta_mean_motion_dot": 1.02e-06,
        "meta_mean_motion_ddot": 0,
        "tle_line1": "1 46805U 20075A   25358.84795815  .00000102  00000+0  00000+0 0  9998",
        "tle_line2": "2 46805  64.5968 198.2920 0006111 227.5617 132.4433  2.13100193 40197"
      },
      "geometry": {
        "type": "Point",
        "coordinates": [
          55.21208878291967,
          -51.67710891978046
        ]
      }
    },
    {
      "type": "Feature",
      "properties": {
        "norad_id": 52984,
        "name": "COSMOS 2557 (706K)",
        "group": "glo-ops",
        "lat": 55.865702870491994,
        "lon": 95.58930490521648,
        "alt_km": 19157.058624932735,
        "timestamp": "2025-12-26T13:39:19.236772+00:00",
        "meta_object_name": "COSMOS 2557 (706K)",
        "meta_object_id": "2022-075A",
        "meta_epoch": "2025-12-25T22:50:27.414816",
        "meta_mean_motion": 2.13102015,
        "meta_eccentricity": 0.00135372,
        "meta_inclination": 64.4024,
        "meta_ra_of_asc_node": 320.5875,
        "meta_arg_of_pericenter": 278.4992,
        "meta_mean_anomaly": 81.3515,
        "meta_ephemeris_type": 0,
        "meta_classification_type": "U",
        "meta_norad_cat_id": 52984,
        "meta_element_set_no": 999,
        "meta_rev_at_epoch": 2702,
        "meta_bstar": 0,
        "meta_mean_motion_dot": -3.5e-07,
        "meta_mean_motion_ddot": 0,
        "tle_line1": "1 52984U 22075A   25359.95170619 -.00000035  00000+0  00000+0 0  9993",
        "tle_line2": "2 52984  64.4024 320.5875 0013537 278.4992  81.3515  2.13102015 27029"
      },
      "geometry": {
        "type": "Point",
        "coordinates": [
          95.58930490521648,
          55.865702870491994
        ]
      }
    },
    {
      "type": "Feature",
      "properties": {
        "norad_id": 54031,
        "name": "COSMOS 2559 (707K)",
        "group": "glo-ops",
        "lat": -59.23326722076983,
        "lon": -165.68305495517083,
        "alt_km": 19121.947529692134,
        "timestamp": "2025-12-26T13:39:19.236785+00:00",
        "meta_object_name": "COSMOS 2559 (707K)",
        "meta_object_id": "2022-130A",
        "meta_epoch": "2025-12-25T07:14:23.309088",
        "meta_mean_motion": 2.13101233,
        "meta_eccentricity": 0.0011493,
        "meta_inclination": 64.3751,
        "meta_ra_of_asc_node": 320.6993,
        "meta_arg_of_pericenter": 191.6749,
        "meta_mean_anomaly": 168.3019,
        "meta_ephemeris_type": 0,
        "meta_classification_type": "U",
        "meta_norad_cat_id": 54031,
        "meta_element_set_no": 999,
        "meta_rev_at_epoch": 2498,
        "meta_bstar": 0,
        "meta_mean_motion_dot": -3.5e-07,
        "meta_mean_motion_ddot": 0,
        "tle_line1": "1 54031U 22130A   25359.30165867 -.00000035  00000+0  00000+0 0  9998",
        "tle_line2": "2 54031  64.3751 320.6993 0011493 191.6749 168.3019  2.13101233 24985"
      },
      "geometry": {
        "type": "Point",
        "coordinates": [
          -165.68305495517083,
          -59.23326722076983
        ]
      }
    },
    {
      "type": "Feature",
      "properties": {
        "norad_id": 54377,
        "name": "COSMOS 2564 (761)",
        "group": "glo-ops",
        "lat": 10.669070816391855,
        "lon": -156.45159595087145,
        "alt_km": 19150.369866890265,
        "timestamp": "2025-12-26T13:39:19.236797+00:00",
        "meta_object_name": "COSMOS 2564 (761)",
        "meta_object_id": "2022-161A",
        "meta_epoch": "2025-12-25T03:29:54.558240",
        "meta_mean_motion": 2.13102011,
        "meta_eccentricity": 0.0008544,
        "meta_inclination": 64.739,
        "meta_ra_of_asc_node": 198.4867,
        "meta_arg_of_pericenter": 203.5994,
        "meta_mean_anomaly": 156.4178,
        "meta_ephemeris_type": 0,
        "meta_classification_type": "U",
        "meta_norad_cat_id": 54377,
        "meta_element_set_no": 999,
        "meta_rev_at_epoch": 2392,
        "meta_bstar": 0,
        "meta_mean_motion_dot": 1.03e-06,
        "meta_mean_motion_ddot": 0,
        "tle_line1": "1 54377U 22161A   25359.14577035  .00000103  00000+0  00000+0 0  9996",
        "tle_line2": "2 54377  64.7390 198.4867 0008544 203.5994 156.4178  2.13102011 23922"
      },
      "geometry": {
        "type": "Point",
        "coordinates": [
          -156.45159595087145,
          10.669070816391855
        ]
      }
    },
    {
      "type": "Feature",
      "properties": {
        "norad_id": 57517,
        "name": "COSMOS 2569 (703K)",
        "group": "glo-ops",
        "lat": 1.4574212532038895,
        "lon": 79.13064549730825,
        "alt_km": 19122.55682304175,
        "timestamp": "2025-12-26T13:39:19.236809+00:00",
        "meta_object_name": "COSMOS 2569 (703K)",
        "meta_object_id": "2023-114A",
        "meta_epoch": "2025-12-26T02:20:34.905408",
        "meta_mean_motion": 2.13103952,
        "meta_eccentricity": 0.00110098,
        "meta_inclination": 65.2009,
        "meta_ra_of_asc_node": 78.4621,
        "meta_arg_of_pericenter": 287.2132,
        "meta_mean_anomaly": 72.7147,
        "meta_ephemeris_type": 0,
        "meta_classification_type": "U",
        "meta_norad_cat_id": 57517,
        "meta_element_set_no": 999,
        "meta_rev_at_epoch": 1857,
        "meta_bstar": 0,
        "meta_mean_motion_dot": -5e-08,
        "meta_mean_motion_ddot": 0,
        "tle_line1": "1 57517U 23114A   25360.09762622 -.00000005  00000+0  00000+0 0  9990",
        "tle_line2": "2 57517  65.2009  78.4621 0011009 287.2132  72.7147  2.13103952 18578"
      },
      "geometry": {
        "type": "Point",
        "coordinates": [
          79.13064549730825,
          1.4574212532038895
        ]
      }
    },
    {
      "type": "Feature",
      "properties": {
        "norad_id": 63130,
        "name": "COSMOS 2584 (704K)",
        "group": "glo-ops",
        "lat": 64.95647305989648,
        "lon": 165.06882246030835,
        "alt_km": 19136.200207037877,
        "timestamp": "2025-12-26T13:39:19.236825+00:00",
        "meta_object_name": "COSMOS 2584 (704K)",
        "meta_object_id": "2025-042A",
        "meta_epoch": "2025-12-24T02:34:25.549824",
        "meta_mean_motion": 2.13102981,
        "meta_eccentricity": 0.00077651,
        "meta_inclination": 64.9819,
        "meta_ra_of_asc_node": 78.7588,
        "meta_arg_of_pericenter": 220.6893,
        "meta_mean_anomaly": 139.3012,
        "meta_ephemeris_type": 0,
        "meta_classification_type": "U",
        "meta_norad_cat_id": 63130,
        "meta_element_set_no": 999,
        "meta_rev_at_epoch": 631,
        "meta_bstar": 0,
        "meta_mean_motion_dot": 1e-08,
        "meta_mean_motion_ddot": 0,
        "tle_line1": "1 63130U 25042A   25358.10724016  .00000001  00000+0  00000+0 0  9999",
        "tle_line2": "2 63130  64.9819  78.7588 0007765 220.6893 139.3012  2.13102981  6316"
      },
      "geometry": {
        "type": "Point",
        "coordinates": [
          165.06882246030835,
          64.95647305989648
        ]
      }
    },
    {
      "type": "Feature",
      "properties": {
        "norad_id": 65590,
        "name": "COSMOS 2596 (708K)",
        "group": "glo-ops",
        "lat": -24.05510443930963,
        "lon": 153.14132260519074,
        "alt_km": 19140.18021046228,
        "timestamp": "2025-12-26T13:39:19.236838+00:00",
        "meta_object_name": "COSMOS 2596 (708K)",
        "meta_object_id": "2025-206B",
        "meta_epoch": "2025-12-24T10:04:00.075648",
        "meta_mean_motion": 2.13100293,
        "meta_eccentricity": 0.00140917,
        "meta_inclination": 64.738,
        "meta_ra_of_asc_node": 321.0695,
        "meta_arg_of_pericenter": 307.5813,
        "meta_mean_anomaly": 50.2886,
        "meta_ephemeris_type": 0,
        "meta_classification_type": "U",
        "meta_norad_cat_id": 65590,
        "meta_element_set_no": 999,
        "meta_rev_at_epoch": 218,
        "meta_bstar": 0,
        "meta_mean_motion_dot": -3.5e-07,
        "meta_mean_motion_ddot": 0,
        "tle_line1": "1 65590U 25206B   25358.41944532 -.00000035  00000+0  00000+0 0  9992",
        "tle_line2": "2 65590  64.7380 321.0695 0014091 307.5813  50.2886  2.13100293  2184"
      },
      "geometry": {
        "type": "Point",
        "coordinates": [
          153.14132260519074,
          -24.05510443930963
        ]
      }
    }
  ]
}